{
  "type": "FeatureCollection",
  "features": [
    {
      "type": "Feature",
      "properties": {
        "norad_id": 15362,
        "name": "NOVA 3",
        "group": "nnss",
        "lat": 51.7587604770318,
        "lon": -99.34347801005248,
        "alt_km": 1188.0578725347195,
        "timestamp": "2025-12-09T21:34:11.676367+00:00",
        "meta_object_name": "NOVA 3",
        "meta_object_id": "1984-110A",
        "meta_epoch": "2025-12-09T13:43:18.996096",
        "meta_mean_motion": 13.23044071,
        "meta_eccentricity": 0.00307346,
        "meta_inclination": 90.1223,
        "meta_ra_of_asc_node": 80.4974,
        "meta_arg_of_pericenter": 340.9141,
        "meta_mean_anomaly": 30.4969,
        "meta_ephemeris_type": 0,
        "meta_classification_type": "U",
        "meta_norad_cat_id": 15362,
        "meta_element_set_no": 999,
        "meta_rev_at_epoch": 98657,
        "meta_bstar": 0.00021782152,
        "meta_mean_motion_dot": 1e-06,
        "meta_mean_motion_ddot": 0,
        "tle_line1": "1 15362U 84110A   25343.57174764  .00000100  00000+0  21782-3 0  9992",
        "tle_line2": "2 15362  90.1223  80.4974 0030734 340.9141  30.4969 13.23044071986578"
      },
      "geometry": {
        "type": "Point",
        "coordinates": [
          -99.34347801005248,
          51.7587604770318
        ]
      }
    },
    {
      "type": "Feature",
      "properties": {
        "norad_id": 15935,
        "name": "OSCAR 30",
        "group": "nnss",
        "lat": 75.06528404390829,
        "lon": 99.18196492029264,
        "alt_km": 994.9818944128483,
        "timestamp": "2025-12-09T21:34:11.676377+00:00",
        "meta_object_name": "OSCAR 30",
        "meta_object_id": "1985-066A",
        "meta_epoch": "2025-12-09T14:04:06.796992",
        "meta_mean_motion": 13.36077589,
        "meta_eccentricity": 0.01694086,
        "meta_inclination": 90.1649,
        "meta_ra_of_asc_node": 99.7955,
        "meta_arg_of_pericenter": 92.7045,
        "meta_mean_anomaly": 280.464,
        "meta_ephemeris_type": 0,
        "meta_classification_type": "U",
        "meta_norad_cat_id": 15935,
        "meta_element_set_no": 999,
        "meta_rev_at_epoch": 96411,
        "meta_bstar": 0.00028064171,
        "meta_mean_motion_dot": 1.66e-06,
        "meta_mean_motion_ddot": 0,
        "tle_line1": "1 15935U 85066A   25343.58618978  .00000166  00000+0  28064-3 0  9992",
        "tle_line2": "2 15935  90.1649  99.7955 0169408  92.7045 280.4640 13.36077589964117"
      },
      "geometry": {
        "type": "Point",
        "coordinates": [
          99.18196492029264,
          75.06528404390829
        ]
      }
    },
    {
      "type": "Feature",
      "properties": {
        "norad_id": 15936,
        "name": "OSCAR 24",
        "group": "nnss",
        "lat": 25.855362378445918,
        "lon": -87.65821760265858,
        "alt_km": 1050.1700689529807,
        "timestamp": "2025-12-09T21:34:11.676390+00:00",
        "meta_object_name": "OSCAR 24",
        "meta_object_id": "1985-066B",
        "meta_epoch": "2025-12-09T13:41:01.087008",
        "meta_mean_motion": 13.35935118,
        "meta_eccentricity": 0.01704721,
        "meta_inclination": 90.1788,
        "meta_ra_of_asc_node": 92.2493,
        "meta_arg_of_pericenter": 99.1842,
        "meta_mean_anomaly": 273.8521,
        "meta_ephemeris_type": 0,
        "meta_classification_type": "U",
        "meta_norad_cat_id": 15936,
        "meta_element_set_no": 999,
        "meta_rev_at_epoch": 96601,
        "meta_bstar": 0.00024604697,
        "meta_mean_motion_dot": 1.47e-06,
        "meta_mean_motion_ddot": 0,
        "tle_line1": "1 15936U 85066B   25343.57015147  .00000147  00000+0  24605-3 0  9997",
        "tle_line2": "2 15936  90.1788  92.2493 0170472  99.1842 273.8521 13.35935118966011"
      },
      "geometry": {
        "type": "Point",
        "coordinates": [
          -87.65821760265858,
          25.855362378445918
        ]
      }
    },
    {
      "type": "Feature",
      "properties": {
        "norad_id": 17070,
        "name": "POLAR BEAR",
        "group": "nnss",
        "lat": -53.132884884321605,
        "lon": -176.62292542569764,
        "alt_km": 1017.857886886789,
        "timestamp": "2025-12-09T21:34:11.676402+00:00",
        "meta_object_name": "POLAR BEAR",
        "meta_object_id": "1986-088A",
        "meta_epoch": "2025-12-09T11:40:55.884288",
        "meta_mean_motion": 13.75249895,
        "meta_eccentricity": 0.00407734,
        "meta_inclination": 89.6176,
        "meta_ra_of_asc_node": 183.9039,
        "meta_arg_of_pericenter": 128.6786,
        "meta_mean_anomaly": 299.7884,
        "meta_ephemeris_type": 0,
        "meta_classification_type": "U",
        "meta_norad_cat_id": 17070,
        "meta_element_set_no": 999,
        "meta_rev_at_epoch": 95934,
        "meta_bstar": 0.00016163387,
        "meta_mean_motion_dot": 1.67e-06,
        "meta_mean_motion_ddot": 0,
        "tle_line1": "1 17070U 86088A   25343.48675792  .00000167  00000+0  16163-3 0  9993",
        "tle_line2": "2 17070  89.6176 183.9039 0040773 128.6786 299.7884 13.75249895959346"
      },
      "geometry": {
        "type": "Point",
        "coordinates": [
          -176.62292542569764,
          -53.132884884321605
        ]
      }
    },
    {
      "type": "Feature",
      "properties": {
        "norad_id": 18361,
        "name": "OSCAR 27",
        "group": "nnss",
        "lat": 26.761701246700188,
        "lon": -100.64509584974523,
        "alt_km": 1074.5145269054638,
        "timestamp": "2025-12-09T21:34:11.676413+00:00",
        "meta_object_name": "OSCAR 27",
        "meta_object_id": "1987-080A",
        "meta_epoch": "2025-12-09T13:39:29.711232",
        "meta_mean_motion": 13.4490578,
        "meta_eccentricity": 0.01026828,
        "meta_inclination": 90.3743,
        "meta_ra_of_asc_node": 79.1537,
        "meta_arg_of_pericenter": 232.9829,
        "meta_mean_anomaly": 126.1891,
        "meta_ephemeris_type": 0,
        "meta_classification_type": "U",
        "meta_norad_cat_id": 18361,
        "meta_element_set_no": 999,
        "meta_rev_at_epoch": 87514,
        "meta_bstar": 0.00029987853,
        "meta_mean_motion_dot": 1.89e-06,
        "meta_mean_motion_ddot": 0,
        "tle_line1": "1 18361U 87080A   25343.56909388  .00000189  00000+0  29988-3 0  9993",
        "tle_line2": "2 18361  90.3743  79.1537 0102682 232.9829 126.1891 13.44905780875147"
      },
      "geometry": {
        "type": "Point",
        "coordinates": [
          -100.64509584974523,
          26.761701246700188
        ]
      }
    },
    {
      "type": "Feature",
      "properties": {
        "norad_id": 18362,
        "name": "OSCAR 29",
        "group": "nnss",
        "lat": 9.905723090287564,
        "lon": -100.30970062390251,
        "alt_km": 1087.3800009194147,
        "timestamp": "2025-12-09T21:34:11.676423+00:00",
        "meta_object_name": "OSCAR 29",
        "meta_object_id": "1987-080B",
        "meta_epoch": "2025-12-09T13:37:43.650048",
        "meta_mean_motion": 13.4444762,
        "meta_eccentricity": 0.01037853,
        "meta_inclination": 90.3754,
        "meta_ra_of_asc_node": 79.6123,
        "meta_arg_of_pericenter": 256.3819,
        "meta_mean_anomaly": 114.2703,
        "meta_ephemeris_type": 0,
        "meta_classification_type": "U",
        "meta_norad_cat_id": 18362,
        "meta_element_set_no": 999,
        "meta_rev_at_epoch": 87467,
        "meta_bstar": 0.00027685548,
        "meta_mean_motion_dot": 1.74e-06,
        "meta_mean_motion_ddot": 0,
        "tle_line1": "1 18362U 87080B   25343.56786632  .00000174  00000+0  27686-3 0  9996",
        "tle_line2": "2 18362  90.3754  79.6123 0103785 256.3819 114.2703 13.44447620874671"
      },
      "geometry": {
        "type": "Point",
        "coordinates": [
          -100.30970062390251,
          9.905723090287564
        ]
      }
    },
    {
      "type": "Feature",
      "properties": {
        "norad_id": 19070,
        "name": "OSCAR 23",
        "group": "nnss",
        "lat": 65.31437226931699,
        "lon": -162.99547411901648,
        "alt_km": 1105.1294942037757,
        "timestamp": "2025-12-09T21:34:11.676434+00:00",
        "meta_object_name": "OSCAR 23",
        "meta_object_id": "1988-033A",
        "meta_epoch": "2025-12-09T12:36:56.310336",
        "meta_mean_motion": 13.27786505,
        "meta_eccentricity": 0.01892617,
        "meta_inclination": 90.3215,
        "meta_ra_of_asc_node": 16.293,
        "meta_arg_of_pericenter": 188.8642,
        "meta_mean_anomaly": 305.478,
        "meta_ephemeris_type": 0,
        "meta_classification_type": "U",
        "meta_norad_cat_id": 19070,
        "meta_element_set_no": 999,
        "meta_rev_at_epoch": 82210,
        "meta_bstar": 0.00020441759,
        "meta_mean_motion_dot": 1.1e-06,
        "meta_mean_motion_ddot": 0,
        "tle_line1": "1 19070U 88033A   25343.52565174  .00000110  00000+0  20442-3 0  9997",
        "tle_line2": "2 19070  90.3215  16.2930 0189261 188.8642 305.4780 13.27786505822108"
      },
      "geometry": {
        "type": "Point",
        "coordinates": [
          -162.99547411901648,
          65.31437226931699
        ]
      }
    }
  ]
}